{
  "type": "FeatureCollection",
  "name": "yonago_center",
  "crs": {
    "type": "name",
    "properties": {
      "name": "EPSG:4326"
    }
  },
  "features": [
    {
      "type": "Feature",
      "properties": {
        "city": "yonago",
        "area_km2": 10.641,
        "landmarks": [
          {
            "name": "米子駅",
            "lon": 133.331,
            "lat": 35.428
          },
          {
            "name": "皆生温泉",
            "lon": 133.32,
            "lat": 35.454
          },
          {
            "name": "中心商店街",
            "lon": 133.335,
            "lat": 35.432
          },
          {
            "name": "米子城跡",
            "lon": 133.318,
            "lat": 35.428
          }
        ],
        "source": "build_aoi_polygons.py — bounding box over landmarks"
      },
      "geometry": {
        "type": "Polygon",
        "coordinates": [
          [
            [
              133.312,
              35.424
            ],
            [
              133.343,
              35.424
            ],
            [
              133.343,
              35.458
            ],
            [
              133.312,
              35.458
            ],
            [
              133.312,
              35.424
            ]
          ]
        ]
      }
    }
  ]
}