{
  "type": "FeatureCollection",
  "name": "yamaguchi_center_example",
  "crs": { "type": "name", "properties": { "name": "EPSG:4326" } },
  "features": [
    {
      "type": "Feature",
      "properties": {
        "name": "Yamaguchi central district (illustrative bounding polygon — REPLACE with hand-drawn QGIS polygon before running the pipeline)",
        "source": "placeholder; not authoritative"
      },
      "geometry": {
        "type": "Polygon",
        "coordinates": [[
          [131.450, 34.150],
          [131.500, 34.150],
          [131.500, 34.200],
          [131.450, 34.200],
          [131.450, 34.150]
        ]]
      }
    }
  ]
}
